{
  "46359": {
    "noradId": "46359",
    "tle": [
      "1 46359C 20062AM  25347.21506944  .00175450  00000+0  41144-2 0  3473",
      "2 46359  53.0346 330.8633 0005187  18.7364 307.8027 15.41299024    11"
    ]
  },
  "46362": {
    "noradId": "46362",
    "tle": [
      "1 46362C 20062AQ  25347.20187500  .00257470  00000+0  39691-2 0  3476",
      "2 46362  53.0506 327.4053 0004030  22.1276  88.0884 15.53285151    16"
    ]
  },
  "46366": {
    "noradId": "46366",
    "tle": [
      "1 46366C 20062AU  25347.20534722  .00244380  00000+0  37987-2 0  3474",
      "2 46366  53.0463 338.2972 0009956   0.5959 103.3323 15.53019335    10"
    ]
  },
  "46375": {
    "noradId": "46375",
    "tle": [
      "1 46375C 20062BD  25347.21854167  .00152740  00000+0  41516-2 0  3474",
      "2 46375  53.0369 338.9686 0004432  37.7774 187.1624 15.36826807    10"
    ]
  },
  "46376": {
    "noradId": "46376",
    "tle": [
      "1 46376C 20062BE  25347.18173611  .00228900  00000+0  40785-2 0  3478",
      "2 46376  53.0377 319.9543 0001537 154.8244 173.8901 15.49275725    18"
    ]
  },
  "46382": {
    "noradId": "46382",
    "tle": [
      "1 46382C 20062BL  25347.18798611  .00295970  00000+0  32015-2 0  3476",
      "2 46382  53.0463 328.7365 0005374 339.0967 132.3166 15.62632502    11"
    ]
  },
  "46383": {
    "noradId": "46383",
    "tle": [
      "1 46383C 20062BM  25347.19354167  .00114560  00000+0  23221-2 0  3476",
      "2 46383  53.0488  14.0631 0004561 331.4648 153.5480 15.45673170    10"
    ]
  },
  "46384": {
    "noradId": "46384",
    "tle": [
      "1 46384C 20062BN  25347.15048611  .00077706  00000+0  24054-2 0  3472",
      "2 46384  53.0494  34.8782 0005922 334.0565 133.1548 15.32819361    13"
    ]
  },
  "46533": {
    "noradId": "46533",
    "tle": [
      "1 46533C 20070B   25347.22062500  .00123620  00000+0  24741-2 0  3478",
      "2 46533  53.0522 192.0281 0006445 139.3499 130.8672 15.46022669    19"
    ]
  },
  "46535": {
    "noradId": "46535",
    "tle": [
      "1 46535C 20070D   25347.21437500  .00127070  00000+0  28294-2 0  3475",
      "2 46535  53.0505 192.7710 0010450 135.8041 264.9226 15.42849251    15"
    ]
  },
  "46537": {
    "noradId": "46537",
    "tle": [
      "1 46537C 20070F   25347.20048611  .00119770  00000+0  26545-2 0  3472",
      "2 46537  53.0516 192.4808 0006850 140.5782 223.2090 15.43029249    13"
    ]
  },
  "46538": {
    "noradId": "46538",
    "tle": [
      "1 46538C 20070G   25347.20881944  .00144330  00000+0  24343-2 0  3471",
      "2 46538  53.0480 171.0654 0001466 262.3496  13.2596 15.50908236    17"
    ]
  },
  "46541": {
    "noradId": "46541",
    "tle": [
      "1 46541C 20070K   25347.21159722  .00223710  00000+0  34691-2 0  3475",
      "2 46541  53.0469 163.0800 0015481 139.9151 224.9344 15.53020558    18"
    ]
  },
  "46549": {
    "noradId": "46549",
    "tle": [
      "1 46549C 20070T   25347.21715278  .00311950  00000+0  23146-2 0  3474",
      "2 46549  53.0354 141.6546 0001795 218.2888 273.4532 15.71883975    17"
    ]
  },
  "46553": {
    "noradId": "46553",
    "tle": [
      "1 46553C 20070X   25347.19215278  .00005430  00000+0  36389-3 0  3478",
      "2 46553  53.0522 174.9310 0001360  89.4568 309.9891 15.06388173    19"
    ]
  },
  "46556": {
    "noradId": "46556",
    "tle": [
      "1 46556C 20070AA  25347.19006944  .00110320  00000+0  32892-2 0  3478",
      "2 46556  53.0540 195.4172 0009447 129.5082 223.7447 15.33947163    17"
    ]
  },
  "46557": {
    "noradId": "46557",
    "tle": [
      "1 46557C 20070AB  25347.16437500  .00123850  00000+0  34110-2 0  3479",
      "2 46557  53.0541 177.8866 0011394 144.5632 114.4205 15.36390182    19"
    ]
  },
  "46558": {
    "noradId": "46558",
    "tle": [
      "1 46558C 20070AC  25347.15951389  .00209920  00000+0  35954-2 0  3475",
      "2 46558  53.0498 172.0377 0010529 148.7520 115.8287 15.50346692    14"
    ]
  },
  "46559": {
    "noradId": "46559",
    "tle": [
      "1 46559C 20070AD  25347.20604167  .00179170  00000+0  34320-2 0  3470",
      "2 46559  53.0571 136.5348 0009872 117.8661 201.2633 15.47203192    10"
    ]
  },
  "46562": {
    "noradId": "46562",
    "tle": [
      "1 46562C 20070AG  25347.21993056  .00108090  00000+0  32237-2 0  3471",
      "2 46562  53.0519 166.3160 0006536 143.8532 226.9056 15.33962699    11"
    ]
  },
  "46563": {
    "noradId": "46563",
    "tle": [
      "1 46563C 20070AH  25347.20743056  .00095802  00000+0  33568-2 0  3478",
      "2 46563  53.0364 168.9389 0005798 125.6032 353.3438 15.28816352    10"
    ]
  },
  "46564": {
    "noradId": "46564",
    "tle": [
      "1 46564C 20070AJ  25347.17687500  .00195440  00000+0  38677-2 0  3471",
      "2 46564  53.0520 168.6446 0011156 159.5309 102.0896 15.46230707    15"
    ]
  },
  "46565": {
    "noradId": "46565",
    "tle": [
      "1 46565C 20070AK  25347.15881944  .00146950  00000+0  34500-2 0  3471",
      "2 46565  53.0509 175.1194 0007353 160.3790  94.9344 15.41278379    13"
    ]
  },
  "46566": {
    "noradId": "46566",
    "tle": [
      "1 46566C 20070AL  25347.19562500  .00331790  00000+0  27131-2 0  3470",
      "2 46566  53.0493 150.9278 0003209  77.8944  47.0452 15.69545562    19"
    ]
  },
  "46567": {
    "noradId": "46567",
    "tle": [
      "1 46567C 20070AM  25347.19354167  .00155090  00000+0  36109-2 0  3471",
      "2 46567  53.0508 174.4363 0008891 158.6408 115.9637 15.41507012    16"
    ]
  },
  "46572": {
    "noradId": "46572",
    "tle": [
      "1 46572C 20070AS  25347.22201389  .00030560  00000+0  90580-3 0  3476",
      "2 46572  53.0567 194.8252 0009370 136.9798 126.5597 15.34211442    18"
    ]
  },
  "46576": {
    "noradId": "46576",
    "tle": [
      "1 46576C 20070AW  25347.14076389  .00139080  00000+0  35193-2 0  3476",
      "2 46576  53.0490 179.5733 0009843 142.5152 209.0679 15.38996989    11"
    ]
  },
  "46578": {
    "noradId": "46578",
    "tle": [
      "1 46578C 20070AY  25347.19909722  .00183700  00000+0  33403-2 0  3479",
      "2 46578  53.0191 135.4006 0007333 135.3955 357.7525 15.48713205    18"
    ]
  },
  "46579": {
    "noradId": "46579",
    "tle": [
      "1 46579C 20070AZ  25347.21854167  .00341390  00000+0  23624-2 0  3470",
      "2 46579  53.0400 146.3654 0005605 136.5455 280.2960 15.73465211    12"
    ]
  },
  "46581": {
    "noradId": "46581",
    "tle": [
      "1 46581C 20070BB  25347.21020833  .00216030  00000+0  33575-2 0  3476",
      "2 46581  53.0465 149.4482 0001248 316.6543 351.2430 15.53111502    17"
    ]
  },
  "46582": {
    "noradId": "46582",
    "tle": [
      "1 46582C 20070BC  25347.18798611  .00113840  00000+0  33468-2 0  3475",
      "2 46582  53.0492 176.3370 0008307 152.4899 116.7083 15.34393755    15"
    ]
  },
  "46585": {
    "noradId": "46585",
    "tle": [
      "1 46585C 20070BF  25347.11159722  .00162200  00000+0  35184-2 0  3476",
      "2 46585  53.0508 174.7506 0008300 154.0311 194.7288 15.43611461    19"
    ]
  },
  "46588": {
    "noradId": "46588",
    "tle": [
      "1 46588C 20070BJ  25347.17270833  .00157410  00000+0  35732-2 0  3478",
      "2 46588  53.0507 173.9445 0009488 152.3526 247.3223 15.42256030    11"
    ]
  },
  "46672": {
    "noradId": "46672",
    "tle": [
      "1 46672C 20073C   25347.19562500  .00144720  00000+0  30868-2 0  3477",
      "2 46672  53.0517 257.7506 0014986  90.0917 125.5167 15.44036797    18"
    ]
  },
  "46674": {
    "noradId": "46674",
    "tle": [
      "1 46674C 20073E   25347.21020833  .00036143  00000+0  24210-2 0  3473",
      "2 46674  53.0529 269.8372 0001524  78.7999 336.1226 15.06372078    14"
    ]
  },
  "46681": {
    "noradId": "46681",
    "tle": [
      "1 46681C 20073M   25347.19701389  .00159010  00000+0  28729-2 0  3478",
      "2 46681  53.0534 272.9594 0010487  93.7351  28.1079 15.48887182    13"
    ]
  },
  "46685": {
    "noradId": "46685",
    "tle": [
      "1 46685C 20073R   25347.18868056  .00028698  00000+0  19207-2 0  3474",
      "2 46685  53.0544 285.2069 0001382  87.4179 207.9615 15.06410166    15"
    ]
  },
  "46687": {
    "noradId": "46687",
    "tle": [
      "1 46687C 20073T   25347.17340278  .00100010  00000+0  27894-2 0  3476",
      "2 46687  53.0525 241.4839 0009642 111.0765 109.0456 15.36040064    11"
    ]
  },
  "46689": {
    "noradId": "46689",
    "tle": [
      "1 46689C 20073V   25347.17409722  .00140970  00000+0  30932-2 0  3474",
      "2 46689  53.0528 274.9471 0009950  86.4822  50.8464 15.43276019    11"
    ]
  },
  "46690": {
    "noradId": "46690",
    "tle": [
      "1 46690C 20073W   25347.19840278  .00191590  00000+0  24649-2 0  3475",
      "2 46690  53.0493 236.6204 0012016  68.7506  77.4860 15.58152494    13"
    ]
  },
  "46691": {
    "noradId": "46691",
    "tle": [
      "1 46691C 20073X   25347.19631944  .00062383  00000+0  12647-2 0  3476",
      "2 46691  53.0525 258.9702 0009674  96.0364 253.0097 15.45679834    14"
    ]
  },
  "46696": {
    "noradId": "46696",
    "tle": [
      "1 46696C 20073AC  25347.16645833  .00122480  00000+0  26031-2 0  3477",
      "2 46696  53.0512 239.3638 0011589 111.9603  56.6357 15.44216164    15"
    ]
  },
  "46698": {
    "noradId": "46698",
    "tle": [
      "1 46698C 20073AE  25347.19909722  .00103850  00000+0  27677-2 0  3479",
      "2 46698  53.0520 261.1554 0011081  87.2086  43.1096 15.37429747    19"
    ]
  },
  "46699": {
    "noradId": "46699",
    "tle": [
      "1 46699C 20073AF  25347.19979167  .00163100  00000+0  29533-2 0  3477",
      "2 46699  53.0520 257.6044 0011966  98.8406  14.4450 15.48802674    11"
    ]
  },
  "46700": {
    "noradId": "46700",
    "tle": [
      "1 46700C 20073AG  25347.18937500  .00148910  00000+0  30286-2 0  3473",
      "2 46700  53.0494 271.0404 0014653  78.7504  60.9971 15.45429706    18"
    ]
  }
}